GOES-16
1 41866U 16071A   25328.06394817 -.00000071  00000-0  00000+0 0  9996
2 41866   0.0669  96.2436 0002924 153.9717  91.4429  1.00271286 33044
FENGYUN-4A
1 41882U 16077A   25328.18049267 -.00000337  00000-0  00000+0 0  9994
2 41882   1.7992  82.5647 0004703 152.6680  16.8409  1.00265734 32873
FOX-1B (AO-91)
1 43017U 17073E   25327.87324205  .00012223  00000-0  58434-3 0  9990
2 43017  97.4957 194.5033 0161675 315.7687  43.0710 15.08263274434392
CANX-2
1 32790U 08021H   25327.86791352  .00005990  00000-0  44320-3 0  9991
2 32790  97.8426 299.2571 0011576  25.1254 335.0532 15.03505454953935
AIST-2 (RS-43)
1 39133U 13015D   25328.18356619  .00006890  00000-0  29449-3 0  9992
2 39133  64.8691 206.2659 0029820 257.7607 102.0182 15.23250946692648
NANOSATC-BR1
1 40024U 14033Q   25328.01494472  .00017497  00000-0  72908-3 0  9999
2 40024  98.0912 338.1999 0004382 150.9230 209.2250 15.23782853622655
QB50P1
1 40025U 14033R   25327.91823174  .00010748  00000-0  59589-3 0  9995
2 40025  98.0967 320.3275 0008489 196.1760 163.9200 15.13955048621925
QB50P2
1 40032U 14033Y   25327.94642569  .00009134  00000-0  54493-3 0  9999
2 40032  98.0631 307.7831 0008869 140.9667 219.2203 15.11361775621624
PERSEUS-M2
1 40037U 14033AD  25328.13490065  .00002790  00000-0  26326-3 0  9993
2 40037  97.9736 269.9490 0010285 258.6196 101.3868 14.94578180620146
PERSEUS-M1
1 40039U 14033AF  25327.78533263  .00002800  00000-0  26388-3 0  9993
2 40039  97.9443 263.9628 0009975 258.2079 101.8022 14.94624510619942
POLYITAN-1
1 40042U 14033AJ  25327.98421389  .00019378  00000-0  78458-3 0  9997
2 40042  98.1085 331.0110 0009830 132.0743 228.1330 15.24694305622235
TIGRISAT
1 40043U 14033AK  25327.95774486  .00002687  00000-0  32185-3 0  9996
2 40043  97.7560 118.1862 0050976  29.2024 331.2024 14.83994627615178
UKUBE-1
1 40074U 14037F   25327.89321139  .00012271  00000-0  77625-3 0  9998
2 40074  98.4137 305.4102 0003055 101.4844 258.6725 15.09177117617546
DEORBITSAIL
1 40719U 15032E   25327.85005512  .00009601  00000-0  77708-3 0  9995
2 40719  97.6175 183.7423 0009722 190.1202 169.9827 14.99919407560423
HORYU-IV
1 41340U 16012D   25327.74454713  .00048183  00000-0  87200-3 0  9990
2 41340  30.9945  80.1666 0005918  45.0770 315.0358 15.48373466538601
D-SAT
1 42794U 17036AF  25327.86852807  .00007479  00000-0  38529-3 0  9993
2 42794  97.5358 303.1640 0088797 150.8182 209.8053 15.13242912459764
CORVUS-BC2
1 42846U 17042X   25328.01689916  .00005570  00000-0  40107-3 0  9990
2 42846  97.3844 132.8618 0014591  93.3745 266.9151 15.04494951456198
CORVUS-BC1
1 42847U 17042Y   25328.04050955  .00004069  00000-0  29231-3 0  9996
2 42847  97.3872 133.5514 0013864  72.2910 287.9829 15.04738275456224
APRIZESAT-5 
1 37792U 11044E   25327.79413133  .00001521  00000-0  20195-3 0  9997
2 37792  98.2338 250.2430 0051679 305.1087  54.5286 14.80489426768390
APRIZESAT-6
1 37793U 11044F   25327.97592888  .00001231  00000-0  18211-3 0  9997
2 37793  98.2454 229.2070 0044124  23.9776  39.1210 14.76469117766869
APRIZESAT-7
1 39416U 13066A   25328.09704866  .00001841  00000-0  19053-3 0  9994
2 39416  97.7445 279.7130 0036487 168.6647 191.5402 14.90812613650666
APRIZESAT-8
1 39425U 13066K   25327.82239475  .00001532  00000-0  17408-3 0  9992
2 39425  97.7977 273.5595 0045015 240.8862 118.7843 14.87038708649144
BUGSAT-1 (TITA)
1 40014U 14033E   25328.20518133  .00006679  00000-0  37867-3 0  9995
2 40014  98.0581  44.0608 0030160 157.6704 202.5846 15.12965080624819
SAUDISAT-4
1 40016U 14033G   25327.97230698  .00000920  00000-0  12895-3 0  9994
2 40016  97.7289 116.6379 0045691  23.0363 337.2884 14.79121345615734
TABLETSAT-AURORA
1 40017U 14033H   25328.15543279  .00008164  00000-0  45090-3 0  9999
2 40017  98.0518  25.3388 0012069 190.2536 169.8450 15.14152119624148
APRIZESAT-9
1 40018U 14033J   25327.93427902  .00001123  00000-0  17304-3 0  9994
2 40018  97.8783 101.5838 0067473 139.4121 221.2146 14.73835294613320
APRIZESAT-10
1 40019U 14033K   25327.93616191  .00001097  00000-0  18055-3 0  9999
2 40019  97.9403  94.8786 0078664 208.4370 151.2533 14.70541260612082
AISAT
1 40054U 14034B   25327.65390573  .00011329  00000-0  83199-3 0  9991
2 40054  98.2512 220.7172 0009378 184.1956 175.9190 15.03605522616266
COSMOS-2407 [+]
1 28380U 04028A   25327.84011502  .00000089  00000-0  74484-4 0  9993
2 28380  82.9619 226.8838 0040522 105.9624 323.0506 13.76310566 71639
COSMOS-2414 [+]
1 28521U 05002A   25328.07542218  .00000090  00000-0  61761-4 0  9998
2 28521  82.9508 198.7717 0039647 192.4817 167.5369 13.87899376 55360
COSMOS-2463 [+]
1 36519U 10017A   25327.71271987  .00000081  00000-0  73326-4 0  9998
2 36519  82.9629  40.6923 0035580 342.3592 128.7559 13.71646729779764
NOAA-15
1 25338U 98030A   25328.03873692  .00000168  00000-0  86372-4 0  9994
2 25338  98.5236 349.0568 0009454 224.1675 135.8752 14.27059828432039
NOAA-18
1 28654U 05018A   25328.08534666  .00000162  00000-0  10908-3 0  9997
2 28654  98.8311  45.5820 0014404  18.1688 341.9996 14.13671698 57331
NOAA-19
1 33591U 09005A   25328.04811764  .00000078  00000-0  65338-4 0  9990
2 33591  98.9790  33.5374 0012856 248.8727 111.1071 14.13430436865505
SARAL
1 39086U 13009A   25328.01159580  .00000145  00000-0  69347-4 0  9991
2 39086  98.5510 152.1859 0002255 146.2151 213.9177 14.32747400666225
LAPAN-A3
1 41603U 16040E   25328.20349527  .00004597  00000-0  15401-3 0  9996
2 41603  97.1427 326.4374 0011883  38.7368 321.4724 15.31342424523429
BIROS
1 41604U 16040F   25328.05239266  .00137535  00000-0  63867-3 0  9996
2 41604  97.0701 358.8347 0001489 196.9952 163.1269 15.83036209525762
METOP-A
1 29499U 06044A   25328.14922566  .00001763  00000-0  21168-3 0  9990
2 29499  98.3306  63.6839 0176748   3.2065 198.3162 14.74928495995217
METEOR M1
1 35865U 09049A   25328.05872523  .00000140  00000-0  81374-4 0  9993
2 35865  98.7107 287.3484 0002357 154.8704 205.2589 14.23087048840070
METOP-B
1 38771U 12049A   25328.13890208  .00000167  00000-0  96195-4 0  9991
2 38771  98.6824  18.4107 0002009 189.7268 170.3871 14.21398296684132
METEOR M2
1 40069U 14037A   25328.16428869  .00000177  00000-0  10020-3 0  9999
2 40069  98.4882 306.4627 0004611 274.1842  85.8809 14.21376008590192
CSSWE
1 38761U 12048D   25327.64293543  .00029456  00000-0  82685-3 0  9993
2 38761  64.6643  63.6834 0093187 232.1533 127.1141 15.32132956 84773
MCUBED-2
1 39469U 13072H   25327.74410881  .00011411  00000-0  49423-3 0  9999
2 39469 120.4954 282.3875 0164346 149.0825 212.0038 15.11718994 86697
IPEX
1 39471U 13072K   25327.58942846  .00007166  00000-0  37668-3 0  9995
2 39471 120.4665 239.7755 0182995 137.7442 223.7883 15.03769407 84265
FOX-1A (AO-85)
1 40967U 15058D   25328.00957809  .00003398  00000-0  31391-3 0  9996
2 40967  64.7742 195.9259 0137147 137.1189 224.0716 14.89445225 82995
OOREOS
1 37224U 10062C   25327.99463389  .00002791  00000-0  27717-3 0  9993
2 37224  71.9696 184.7440 0012887  99.4726 260.7901 14.92524733 86019
STARS (KUKAI)
1 33498U 09002G   25327.78450098  .00004686  00000-0  44901-3 0  9993
2 33498  98.1363 262.2855 0010134 120.2121 240.0103 14.93631709907792
YUBELEINY-2 (RS-40)
1 38735U 12041C   25328.12867831  .00000045  00000-0  25479-3 0  9999
2 38735  82.4775 202.5388 0017370 152.4166 207.7839 12.42639511604372
AIST-1
1 39492U 13078C   25328.17969008  .00002227  00000-0  19990-3 0  9990
2 39492  82.4147 109.3698 0015901 242.8962 117.0638 14.95224060644609
VELOX-1
1 40057U 14034E   25328.21902034  .00006561  00000-0  60151-3 0  9993
2 40057  98.2690 216.7571 0006531 223.5043 136.5661 14.95251374615949
DX1
1 40071U 14037C   25328.14390637  .00002564  00000-0  27886-3 0  9991
2 40071  98.3614 272.8870 0006302 210.3704 149.7147 14.89022989615587
COSMOS-2491 (RS-46) [i]
1 39497U 13076E   25328.17191839  .00000006  00000-0 -27232-4 0  9995
2 39497  82.4826 296.1020 0012879 173.0965 187.0294 12.43492624539771
COSMOS-2499 (RS-47) [i]
1 39765U 14028E   25328.17090720  .00000044  00000-0  11480-3 0  9996
2 39765  82.4525  30.7790 0232603 122.8699 239.5025 12.82898019538737
TRANSIT 5B-5
1   965U 64083D   25328.04764255  .00000092  00000-0  11575-3 0  9997
2   965  90.0690 201.4643 0042154 155.4095 334.3758 13.56987911 15796
EUTELSAT 1-F4 (ECS 4)
1 18351U 87078B   25327.66511022 -.00000003  00000-0  00000+0 0  9993
2 18351  13.9760 343.5601 0007563  16.4429 345.2433  0.98687960124739
BISONSAT
1 40968U 15058E   25327.97455582  .00005134  00000-0  42731-3 0  9993
2 40968  64.7734 180.5943 0125818 135.4670 225.6640 14.93770407 85988
DTUSAT-2
1 40030U 14033W   25327.93485957  .00008981  00000-0  53706-3 0  9997
2 40030  98.0749 308.3510 0007168 201.7738 158.3187 15.11295962621649
ELEKTRO-L2
1 41105U 15074A   25328.15310583 -.00000098  00000-0  00000+0 0  9991
2 41105   6.1761  73.0482 0003429 195.5016 195.4654  1.00271319 36459
DOVE-3
1 39429U 13066P   25327.62571120  .00003768  00000-0  51283-3 0  9992
2 39429  97.6844 192.8333 0116519 331.8187  27.6748 14.74694082640694
FORTE
1 24920U 97047A   25327.91290834  .00000322  00000-0  15315-3 0  9994
2 24920  69.9516 117.6368 0023146 205.4683 154.5301 14.27820388469383
DMSP 5D-2 F15/USA-147
1 25991U 99067A   25328.10926711  .00000192  00000-0  11733-3 0  9994
2 25991  99.0233 358.8385 0009283 221.8590 229.9072 14.17464279341591
CASSIOPE-1
1 39265U 13055A   25328.08804617  .00047810 -38567-6  64868-3 0  9994
2 39265  80.9303 313.0367 0350450  26.9073 334.9849 15.09277473636557
D-STAR ONE PHOENIX
1 43188U 18014J   25327.72145435  .00005818  00000-0  32362-3 0  9999
2 43188  97.5500 229.1201 0009961  17.5177 342.6396 15.14012426427644
S-NET D
1 43186U 18014G   25327.72166694  .00005735  00000-0  31917-3 0  9990
2 43186  97.5488 228.9672 0009552  21.5185 338.6446 15.14006224427646
TEN-KOH
1 43677U 18084G   25328.05485228  .00004215  00000-0  32954-3 0  9990
2 43677  98.0709 146.9249 0009287  76.3225 283.9032 15.01631078385362
